{"type": "FeatureCollection", "features": [ {"type": "Feature", "properties": {"norad_id": 29892, "name": "FENGYUN 1C DEB", "group": "fengyun-1c-debris", "lat": -25.05216411441381, "lon": -59.88398221301999, "alt_km": 855.1898217978842, "timestamp": "2025-12-03T10:52:57.725479+00:00", "meta": {"OBJECT_NAME": "FENGYUN 1C DEB", "OBJECT_ID": "1999-025GN", "EPOCH": "2025-12-03T04:03:44.852832", "MEAN_MOTION": 14.31883176, "ECCENTRICITY": 0.0190859, "INCLINATION": 99.1811, "RA_OF_ASC_NODE": 124.1508, "ARG_OF_PERICENTER": 325.0921, "MEAN_ANOMALY": 218.0755, "EPHEMERIS_TYPE": 0, "CLASSIFICATION_TYPE": "U", "NORAD_CAT_ID": 29892, "ELEMENT_SET_NO": 999, "REV_AT_EPOCH": 96512, "BSTAR": 0.0036155, "MEAN_MOTION_DOT": 0.00011797, "MEAN_MOTION_DDOT": 0}, "tle": {"line1": "1 29892U 99025GN  25337.16926913  .00011797  00000+0  36155-2 0  9998", "line2": "2 29892  99.1811 124.1508 0190859 325.0921 218.0755 14.31883176965129"}}, "geometry": {"type": "Point", "coordinates": [-59.88398221301999, -25.05216411441381]}}, {"type": "Feature", "properties": {"norad_id": 29893, "name": "FENGYUN 1C DEB", "group": "fengyun-1c-debris", "lat": -69.63013399686902, "lon": 98.32098023367259, "alt_km": 1014.9131613969548, "timestamp": "2025-12-03T10:52:57.725489+00:00", "meta": {"OBJECT_NAME": "FENGYUN 1C DEB", "OBJECT_ID": "1999-025GP", "EPOCH": "2025-12-03T01:39:23.688288", "MEAN_MOTION": 13.79452736, "ECCENTRICITY": 0.0173326, "INCLINATION": 98.554, "RA_OF_ASC_NODE": 74.0602, "ARG_OF_PERICENTER": 179.5143, "MEAN_ANOMALY": 359.1968, "EPHEMERIS_TYPE": 0, "CLASSIFICATION_TYPE": "U", "NORAD_CAT_ID": 29893, "ELEMENT_SET_NO": 999, "REV_AT_EPOCH": 95006, "BSTAR": 0.0003045, "MEAN_MOTION_DOT": 3.13e-06, "MEAN_MOTION_DDOT": 0}, "tle": {"line1": "1 29893U 99025GP  25337.06902417  .00000313  00000+0  30450-3 0  9996", "line2": "2 29893  98.5540  74.0602 0173326 179.5143 359.1968 13.79452736950063"}}, "geometry": {"type": "Point", "coordinates": [98.32098023367259, -69.63013399686902]}}, {"type": "Feature", "properties": {"norad_id": 29894, "name": "FENGYUN 1C DEB", "group": "fengyun-1c-debris", "lat": -78.48525405435475, "lon": 156.56563688388925, "alt_km": 1088.0277260048288, "timestamp": "2025-12-03T10:52:57.725500+00:00", "meta": {"OBJECT_NAME": "FENGYUN 1C DEB", "OBJECT_ID": "1999-025GQ", "EPOCH": "2025-12-03T02:48:00.895392", "MEAN_MOTION": 13.80954901, "ECCENTRICITY": 0.0168923, "INCLINATION": 99.4869, "RA_OF_ASC_NODE": 31.3907, "ARG_OF_PERICENTER": 70.4202, "MEAN_ANOMALY": 320.1508, "EPHEMERIS_TYPE": 0, "CLASSIFICATION_TYPE": "U", "NORAD_CAT_ID": 29894, "ELEMENT_SET_NO": 999, "REV_AT_EPOCH": 94944, "BSTAR": 0.00065049, "MEAN_MOTION_DOT": 7.21e-06, "MEAN_MOTION_DDOT": 0}, "tle": {"line1": "1 29894U 99025GQ  25337.11667703  .00000721  00000+0  65049-3 0  9994", "line2": "2 29894  99.4869  31.3907 0168923  70.4202 320.1508 13.80954901949445"}}, "geometry": {"type": "Point", "coordinates": [156.56563688388925, -78.48525405435475]}}, {"type": "Feature", "properties": {"norad_id": 29895, "name": "FENGYUN 1C DEB", "group": "fengyun-1c-debris", "lat": 3.52777982075278, "lon": -94.43356059337155, "alt_km": 1079.6143102519218, "timestamp": "2025-12-03T10:52:57.725510+00:00", "meta": {"OBJECT_NAME": "FENGYUN 1C DEB", "OBJECT_ID": "1999-025GR", "EPOCH": "2025-12-03T02:22:25.874112", "MEAN_MOTION": 14.08095259, "ECCENTRICITY": 0.0299704, "INCLINATION": 99.8858, "RA_OF_ASC_NODE": 84.5619, "ARG_OF_PERICENTER": 10.1588, "MEAN_ANOMALY": 169.1371, "EPHEMERIS_TYPE": 0, "CLASSIFICATION_TYPE": "U", "NORAD_CAT_ID": 29895, "ELEMENT_SET_NO": 999, "REV_AT_EPOCH": 95388, "BSTAR": 0.0018888, "MEAN_MOTION_DOT": 4.807e-05, "MEAN_MOTION_DDOT": 0}, "tle": {"line1": "1 29895U 99025GR  25337.09891058  .00004807  00000+0  18888-2 0  9991", "line2": "2 29895  99.8858  84.5619 0299704  10.1588 169.1371 14.08095259953883"}}, "geometry": {"type": "Point", "coordinates": [-94.43356059337155, 3.52777982075278]}}, {"type": "Feature", "properties": {"norad_id": 29896, "name": "FENGYUN 1C DEB", "group": "fengyun-1c-debris", "lat": -54.27368149830419, "lon": 36.09193060164185, "alt_km": 1078.51169742808, "timestamp": "2025-12-03T10:52:57.725521+00:00", "meta": {"OBJECT_NAME": "FENGYUN 1C DEB", "OBJECT_ID": "1999-025GS", "EPOCH": "2025-12-02T16:28:55.441920", "MEAN_MOTION": 13.65350262, "ECCENTRICITY": 0.02393328, "INCLINATION": 99.4222, "RA_OF_ASC_NODE": 228.6942, "ARG_OF_PERICENTER": 127.7889, "MEAN_ANOMALY": 298.395, "EPHEMERIS_TYPE": 0, "CLASSIFICATION_TYPE": "U", "NORAD_CAT_ID": 29896, "ELEMENT_SET_NO": 999, "REV_AT_EPOCH": 93905, "BSTAR": 0.00062723295, "MEAN_MOTION_DOT": 5.79e-06, "MEAN_MOTION_DDOT": 0}, "tle": {"line1": "1 29896U 99025GS  25336.68675280  .00000579  00000+0  62723-3 0  9993", "line2": "2 29896  99.4222 228.6942 0239332 127.7889 298.3950 13.65350262939056"}}, "geometry": {"type": "Point", "coordinates": [36.09193060164185, -54.27368149830419]}}, {"type": "Feature", "properties": {"norad_id": 29897, "name": "FENGYUN 1C DEB", "group": "fengyun-1c-debris", "lat": 62.12827383908221, "lon": -173.84112593490747, "alt_km": 1070.627048142118, "timestamp": "2025-12-03T10:52:57.725531+00:00", "meta": {"OBJECT_NAME": "FENGYUN 1C DEB", "OBJECT_ID": "1999-025GT", "EPOCH": "2025-12-03T02:27:55.814112", "MEAN_MOTION": 13.57132747, "ECCENTRICITY": 0.0296338, "INCLINATION": 98.6289, "RA_OF_ASC_NODE": 202.5365, "ARG_OF_PERICENTER": 164.0265, "MEAN_ANOMALY": 350.1997, "EPHEMERIS_TYPE": 0, "CLASSIFICATION_TYPE": "U", "NORAD_CAT_ID": 29897, "ELEMENT_SET_NO": 999, "REV_AT_EPOCH": 92809, "BSTAR": 0.0022145, "MEAN_MOTION_DOT": 2.062e-05, "MEAN_MOTION_DDOT": 0}, "tle": {"line1": "1 29897U 99025GT  25337.10272933  .00002062  00000+0  22145-2 0  9992", "line2": "2 29897  98.6289 202.5365 0296338 164.0265 350.1997 13.57132747928099"}}, "geometry": {"type": "Point", "coordinates": [-173.84112593490747, 62.12827383908221]}}, {"type": "Feature", "properties": {"norad_id": 29898, "name": "FENGYUN 1C DEB", "group": "fengyun-1c-debris", "lat": 34.13451117920309, "lon": -34.50765009306696, "alt_km": 1311.8746423986713, "timestamp": "2025-12-03T10:52:57.725541+00:00", "meta": {"OBJECT_NAME": "FENGYUN 1C DEB", "OBJECT_ID": "1999-025GU", "EPOCH": "2025-12-02T12:34:20.563968", "MEAN_MOTION": 13.70208046, "ECCENTRICITY": 0.04274366, "INCLINATION": 98.222, "RA_OF_ASC_NODE": 330.3195, "ARG_OF_PERICENTER": 216.9086, "MEAN_ANOMALY": 274.7642, "EPHEMERIS_TYPE": 0, "CLASSIFICATION_TYPE": "U", "NORAD_CAT_ID": 29898, "ELEMENT_SET_NO": 999, "REV_AT_EPOCH": 93021, "BSTAR": 0.0025290599, "MEAN_MOTION_DOT": 4.223e-05, "MEAN_MOTION_DDOT": 0}, "tle": {"line1": "1 29898U 99025GU  25336.52384912  .00004223  00000+0  25291-2 0  9995", "line2": "2 29898  98.2220 330.3195 0427436 216.9086 274.7642 13.70208046930211"}}, "geometry": {"type": "Point", "coordinates": [-34.50765009306696, 34.13451117920309]}}, {"type": "Feature", "properties": {"norad_id": 29899, "name": "FENGYUN 1C DEB", "group": "fengyun-1c-debris", "lat": 80.81177651305136, "lon": 24.764446136773362, "alt_km": 849.2258092776883, "timestamp": "2025-12-03T10:52:57.725552+00:00", "meta": {"OBJECT_NAME": "FENGYUN 1C DEB", "OBJECT_ID": "1999-025GV", "EPOCH": "2025-12-02T09:18:02.992896", "MEAN_MOTION": 13.37487819, "ECCENTRICITY": 0.03536515, "INCLINATION": 98.6612, "RA_OF_ASC_NODE": 133.4158, "ARG_OF_PERICENTER": 104.9635, "MEAN_ANOMALY": 259.0924, "EPHEMERIS_TYPE": 0, "CLASSIFICATION_TYPE": "U", "NORAD_CAT_ID": 29899, "ELEMENT_SET_NO": 999, "REV_AT_EPOCH": 91946, "BSTAR": 0.00023856557, "MEAN_MOTION_DOT": 1.47e-06, "MEAN_MOTION_DDOT": 0}, "tle": {"line1": "1 29899U 99025GV  25336.38753464  .00000147  00000+0  23857-3 0  9990", "line2": "2 29899  98.6612 133.4158 0353651 104.9635 259.0924 13.37487819919468"}}, "geometry": {"type": "Point", "coordinates": [24.764446136773362, 80.81177651305136]}}, {"type": "Feature", "properties": {"norad_id": 29901, "name": "FENGYUN 1C DEB", "group": "fengyun-1c-debris", "lat": 67.02030387261716, "lon": 128.33557320312966, "alt_km": 1263.0925648992188, "timestamp": "2025-12-03T10:52:57.725562+00:00", "meta": {"OBJECT_NAME": "FENGYUN 1C DEB", "OBJECT_ID": "1999-025GX", "EPOCH": "2025-12-02T11:24:18.563040", "MEAN_MOTION": 13.33244554, "ECCENTRICITY": 0.03793069, "INCLINATION": 98.7446, "RA_OF_ASC_NODE": 148.7799, "ARG_OF_PERICENTER": 310.9425, "MEAN_ANOMALY": 101.1909, "EPHEMERIS_TYPE": 0, "CLASSIFICATION_TYPE": "U", "NORAD_CAT_ID": 29901, "ELEMENT_SET_NO": 999, "REV_AT_EPOCH": 91782, "BSTAR": 0.00046721244, "MEAN_MOTION_DOT": 3.06e-06, "MEAN_MOTION_DDOT": 0}, "tle": {"line1": "1 29901U 99025GX  25336.47521485  .00000306  00000+0  46721-3 0  9992", "line2": "2 29901  98.7446 148.7799 0379306 310.9425 101.1909 13.33244554917820"}}, "geometry": {"type": "Point", "coordinates": [128.33557320312966, 67.02030387261716]}}, {"type": "Feature", "properties": {"norad_id": 29904, "name": "FENGYUN 1C DEB", "group": "fengyun-1c-debris", "lat": 15.352432197464058, "lon": -162.76146623909423, "alt_km": 892.9964549319402, "timestamp": "2025-12-03T10:52:57.725573+00:00", "meta": {"OBJECT_NAME": "FENGYUN 1C DEB", "OBJECT_ID": "1999-025HA", "EPOCH": "2025-12-03T01:48:35.081856", "MEAN_MOTION": 14.44417836, "ECCENTRICITY": 0.0208352, "INCLINATION": 99.0432, "RA_OF_ASC_NODE": 14.3303, "ARG_OF_PERICENTER": 347.4616, "MEAN_ANOMALY": 12.1434, "EPHEMERIS_TYPE": 0, "CLASSIFICATION_TYPE": "U", "NORAD_CAT_ID": 29904, "ELEMENT_SET_NO": 999, "REV_AT_EPOCH": 98924, "BSTAR": 0.00055336, "MEAN_MOTION_DOT": 2.428e-05, "MEAN_MOTION_DDOT": 0}, "tle": {"line1": "1 29904U 99025HA  25337.07540604  .00002428  00000+0  55336-3 0  9995", "line2": "2 29904  99.0432  14.3303 0208352 347.4616  12.1434 14.44417836989247"}}, "geometry": {"type": "Point", "coordinates": [-162.76146623909423, 15.352432197464058]}}]}